ONEWEB-0228             
1 48780U 21045P   23191.05684586 -.00000053  00000+0 -17379-3 0  9996
2 48780  87.9023 112.8847 0001908  74.0223 286.1118 13.15546119104362
